TEVEL2-9                
1 63237U 25052AD  26068.70229538  .00018694  00000+0  67240-3 0  9992
2 63237  97.4057 324.3929 0007990 124.2475 235.9522 15.28633834 54816
STARLINK-34071          
1 63910U 25095W   26068.61331487  .00034405  00000+0  12519-2 0  9990
2 63910  43.0008 176.8681 0001289 259.3594 100.7112 15.27634340 47761
